[{"OBJECT_NAME":"GAOFEN-9 03","OBJECT_ID":"2020-039A","EPOCH":"2026-03-09T21:55:15.121344","MEAN_MOTION":15.30529116,"ECCENTRICITY":0.0013094,"INCLINATION":97.5219,"RA_OF_ASC_NODE":201.2158,"ARG_OF_PERICENTER":77.4533,"MEAN_ANOMALY":282.8172,"EPHEMERIS_TYPE":0,"CLASSIFICATION_TYPE":"U","NORAD_CAT_ID":45794,"ELEMENT_SET_NO":999,"REV_AT_EPOCH":31856,"BSTAR":0.00039258132,"MEAN_MOTION_DOT":0.00011544,"MEAN_MOTION_DDOT":0},{"OBJECT_NAME":"STARLINK-35576","OBJECT_ID":"2025-237Z","EPOCH":"2026-03-09T03:51:28.979712","MEAN_MOTION":15.30216265,"ECCENTRICITY":0.0001302,"INCLINATION":53.1601,"RA_OF_ASC_NODE":41.7857,"ARG_OF_PERICENTER":116.5892,"MEAN_ANOMALY":243.5243,"EPHEMERIS_TYPE":0,"CLASSIFICATION_TYPE":"U","NORAD_CAT_ID":66137,"ELEMENT_SET_NO":999,"REV_AT_EPOCH":2253,"BSTAR":0.0011853456,"MEAN_MOTION_DOT":0.0003493,"MEAN_MOTION_DDOT":0}]
